ONEWEB-0522             
1 54140U 22138AD  26166.92941411 -.00000017  00000+0 -75894-4 0  9998
2 54140  87.9180 305.2073 0001698  98.2645 261.8681 13.19724630176649
ONEWEB-0523             
1 54141U 22138AE  26166.81721301 -.00000018  00000+0 -75242-4 0  9999
2 54141  87.9197 274.7133 0002763  99.0118 261.1329 13.20770651179127
ONEWEB-0524             
1 54142U 22138AF  26166.73135872 -.00000004  00000+0 -42725-4 0  9998
2 54142  87.9195 274.7275 0002571 117.0286 243.1110 13.20771166179116
ONEWEB-0525             
1 54143U 22138AG  26166.94836113 -.00000031  00000+0 -10917-3 0  9995
2 54143  87.9175 305.2113 0001543 106.4580 253.6722 13.19725261176668
ONEWEB-0526             
1 54144U 22138AH  26166.90571497 -.00000023  00000+0 -90089-4 0  9993
2 54144  87.9177 305.2202 0001771 102.4781 257.6550 13.19725869176636
ONEWEB-0529             
1 54145U 22138AJ  26166.83305813 -.00000049  00000+0 -15388-3 0  9999
2 54145  87.9168 305.2440 0001631 102.1617 257.9698 13.19724043176641
ONEWEB-0531             
1 54146U 22138AK  26166.79365580  .00000037  00000+0  59457-4 0  9993
2 54146  87.9192 274.7129 0002816 104.8305 255.3140 13.20772018179129
ONEWEB-0535             
1 54147U 22138AL  26166.94204291 -.00000044  00000+0 -14252-3 0  9995
2 54147  87.9177 305.2063 0002181  95.5749 264.5633 13.19724843176670
ONEWEB-0536             
1 54148U 22138AM  26166.85593544  .00000026  00000+0  32934-4 0  9994
2 54148  87.9182 274.7230 0002944 108.0136 252.1319 13.20771060179122
ONEWEB-0527             
1 54642U 22166A   26166.73839031 -.00000007  00000+0 -47873-4 0  9994
2 54642  87.9253 244.2857 0001962 100.1666 259.9689 13.21823009171340
ONEWEB-0528             
1 54643U 22166B   26166.96632270  .00000020  00000+0  17782-4 0  9995
2 54643  87.9256 244.2426 0001849 103.5784 256.5556 13.21823956171389
ONEWEB-0539             
1 54644U 22166C   26166.77710021  .00000037  00000+0  57414-4 0  9990
2 54644  87.9259 244.2518 0001960  92.6810 267.4549 13.21827141171357
ONEWEB-0540             
1 54645U 22166D   26166.93535581 -.00000005  00000+0 -42806-4 0  9991
2 54645  87.9254 244.2507 0002051  95.5206 264.6162 13.21826737171365
ONEWEB-0542             
1 54646U 22166E   26166.93857665 -.00000008  00000+0 -50145-4 0  9990
2 54646  87.9264 244.2182 0002023  90.4978 269.6388 13.21827219171377
ONEWEB-0545             
1 54647U 22166F   26166.90324478 -.00000087  00000+0 -24228-3 0  9998
2 54647  87.9254 244.2372 0002151  84.8730 275.2649 13.21828358171337
ONEWEB-0580             
1 54648U 22166G   26166.72662139 -.00000047  00000+0 -14561-3 0  9993
2 54648  87.9254 244.2722 0002271  89.4530 270.6864 13.21827380171353
ONEWEB-0582             
1 54649U 22166H   26166.92008372 -.00000005  00000+0 -43213-4 0  9990
2 54649  87.9255 244.2263 0002188  87.2955 272.8430 13.21826356171354
ONEWEB-0583             
1 54650U 22166J   26166.93184790  .00000032  00000+0  45954-4 0  9994
2 54650  87.9252 244.2472 0002068  95.6619 264.4751 13.21827932171367
ONEWEB-0584             
1 54651U 22166K   26166.72494619  .00000004  00000+0 -21984-4 0  9993
2 54651  87.9252 244.2739 0002114  96.3712 263.7663 13.21825582171327
ONEWEB-0585             
1 54652U 22166L   26166.74850630 -.00000055  00000+0 -16419-3 0  9998
2 54652  87.9257 244.2563 0001974 103.1084 257.0270 13.21826698171330
ONEWEB-0586             
1 54653U 22166M   26166.91334060  .00000031  00000+0  43459-4 0  9999
2 54653  87.9254 244.2488 0001977  93.6691 266.4669 13.21824549171355
ONEWEB-0587             
1 54654U 22166N   26166.92343354  .00000029  00000+0  39466-4 0  9997
2 54654  87.9264 244.2204 0002028 108.8800 251.2554 13.21824186171512
ONEWEB-0589             
1 54655U 22166P   26166.90997781 -.00000027  00000+0 -96284-4 0  9996
2 54655  87.9252 244.2354 0002434  79.0510 281.0898 13.21824627171370
ONEWEB-0590             
1 54656U 22166Q   26166.93508192  .00000058  00000+0  10808-3 0  9993
2 54656  87.9263 244.2206 0002509 100.6380 259.5037 13.21826758171369
ONEWEB-0591             
1 54657U 22166R   26166.94700290  .00000008  00000+0 -10959-4 0  9992
2 54657  87.9254 244.2329 0002109  98.7041 261.4332 13.21825738171393
ONEWEB-0592             
1 54658U 22166S   26166.72325704 -.00003860  00000+0 -93794-2 0  9998
2 54658  87.9259 244.2552 0002169 102.9174 257.2203 13.21850387171240
ONEWEB-0593             
1 54659U 22166T   26166.74512192 -.00000018  00000+0 -75283-4 0  9997
2 54659  87.9255 244.2628 0001920  94.6563 265.4791 13.21824635171356
ONEWEB-0594             
1 54660U 22166U   26166.91671975 -.00000030  00000+0 -10438-3 0  9997
2 54660  87.9253 244.2451 0001910 102.5855 257.5493 13.21827395171393
ONEWEB-0595             
1 54661U 22166V   26166.96885329 -.00000020  00000+0 -81145-4 0  9996
2 54661  87.9262 244.2152 0002090 105.4524 254.6841 13.21826867171373
ONEWEB-0596             
1 54662U 22166W   26166.94363277  .00000097  00000+0  20358-3 0  9998
2 54662  87.9258 244.2319 0002070 102.0645 258.0721 13.21826390171375
