OBJECT_NAME,OBJECT_ID,EPOCH,MEAN_MOTION,ECCENTRICITY,INCLINATION,RA_OF_ASC_NODE,ARG_OF_PERICENTER,MEAN_ANOMALY,EPHEMERIS_TYPE,CLASSIFICATION_TYPE,NORAD_CAT_ID,ELEMENT_SET_NO,REV_AT_EPOCH,BSTAR,MEAN_MOTION_DOT,MEAN_MOTION_DDOT
ONEWEB-0522,2022-138AD,2026-06-15T22:18:21.379104,13.19724630,.00016985,87.9180,305.2073,98.2645,261.8681,0,U,54140,999,17664,-.75894268E-4,-.17E-6,0
ONEWEB-0523,2022-138AE,2026-06-15T19:36:47.204064,13.20770651,.00027633,87.9197,274.7133,99.0118,261.1329,0,U,54141,999,17912,-.75241618E-4,-.18E-6,0
ONEWEB-0524,2022-138AF,2026-06-15T17:33:09.393408,13.20771166,.00025715,87.9195,274.7275,117.0286,243.1110,0,U,54142,999,17911,-.42725495E-4,-.4E-7,0
ONEWEB-0525,2022-138AG,2026-06-15T22:45:38.401632,13.19725261,.00015438,87.9175,305.2113,106.4580,253.6722,0,U,54143,999,17666,-.10916569E-3,-.31E-6,0
ONEWEB-0526,2022-138AH,2026-06-15T21:44:13.773408,13.19725869,.00017719,87.9177,305.2202,102.4781,257.6550,0,U,54144,999,17663,-.90089219E-4,-.23E-6,0
ONEWEB-0529,2022-138AJ,2026-06-15T19:59:36.222432,13.19724043,.00016317,87.9168,305.2440,102.1617,257.9698,0,U,54145,999,17664,-.15388403E-3,-.49E-6,0
ONEWEB-0531,2022-138AK,2026-06-15T19:02:51.861120,13.20772018,.00028168,87.9192,274.7129,104.8305,255.3140,0,U,54146,999,17912,.59456913E-4,.37E-6,0
ONEWEB-0535,2022-138AL,2026-06-15T22:36:32.507424,13.19724843,.00021812,87.9177,305.2063,95.5749,264.5633,0,U,54147,999,17667,-.14251816E-3,-.44E-6,0
ONEWEB-0536,2022-138AM,2026-06-15T20:32:32.822016,13.20771060,.00029441,87.9182,274.7230,108.0136,252.1319,0,U,54148,999,17912,.32934357E-4,.26E-6,0
ONEWEB-0527,2022-166A,2026-06-15T17:43:16.922784,13.21823009,.00019629,87.9253,244.2857,100.1666,259.9689,0,U,54642,999,17134,-.47872767E-4,-.7E-7,0
ONEWEB-0528,2022-166B,2026-06-15T23:11:30.281280,13.21823956,.00018498,87.9256,244.2426,103.5784,256.5556,0,U,54643,999,17138,.17781781E-4,.2E-6,0
ONEWEB-0539,2022-166C,2026-06-15T18:39:01.458144,13.21827141,.00019603,87.9259,244.2518,92.6810,267.4549,0,U,54644,999,17135,.57413537E-4,.37E-6,0
ONEWEB-0540,2022-166D,2026-06-15T22:26:54.741984,13.21826737,.00020518,87.9254,244.2507,95.5206,264.6162,0,U,54645,999,17136,-.42806154E-4,-.5E-7,0
ONEWEB-0542,2022-166E,2026-06-15T22:31:33.022560,13.21827219,.00020239,87.9264,244.2182,90.4978,269.6388,0,U,54646,999,17137,-.50145422E-4,-.8E-7,0
ONEWEB-0545,2022-166F,2026-06-15T21:40:40.348992,13.21828358,.0002151,87.9254,244.2372,84.8730,275.2649,0,U,54647,999,17133,-.24227879E-3,-.87E-6,0
ONEWEB-0580,2022-166G,2026-06-15T17:26:20.088096,13.21827380,.00022714,87.9254,244.2722,89.4530,270.6864,0,U,54648,999,17135,-.14561313E-3,-.47E-6,0
ONEWEB-0582,2022-166H,2026-06-15T22:04:55.233408,13.21826356,.00021886,87.9255,244.2263,87.2955,272.8430,0,U,54649,999,17135,-.43213324E-4,-.5E-7,0
ONEWEB-0583,2022-166J,2026-06-15T22:21:51.658560,13.21827932,.00020688,87.9252,244.2472,95.6619,264.4751,0,U,54650,999,17136,.4595419E-4,.32E-6,0
ONEWEB-0584,2022-166K,2026-06-15T17:23:55.350816,13.21825582,.00021141,87.9252,244.2739,96.3712,263.7663,0,U,54651,999,17132,-.21984073E-4,.4E-7,0
ONEWEB-0585,2022-166L,2026-06-15T17:57:50.944320,13.21826698,.00019742,87.9257,244.2563,103.1084,257.0270,0,U,54652,999,17133,-.16419322E-3,-.55E-6,0
ONEWEB-0586,2022-166M,2026-06-15T21:55:12.627840,13.21824549,.00019776,87.9254,244.2488,93.6691,266.4669,0,U,54653,999,17135,.43458796E-4,.31E-6,0
ONEWEB-0587,2022-166N,2026-06-15T22:09:44.657856,13.21824186,.00020286,87.9264,244.2204,108.8800,251.2554,0,U,54654,999,17151,.39465868E-4,.29E-6,0
ONEWEB-0589,2022-166P,2026-06-15T21:50:22.082784,13.21824627,.00024342,87.9252,244.2354,79.0510,281.0898,0,U,54655,999,17137,-.96283923E-4,-.27E-6,0
ONEWEB-0590,2022-166Q,2026-06-15T22:26:31.077888,13.21826758,.00025093,87.9263,244.2206,100.6380,259.5037,0,U,54656,999,17136,.1080793E-3,.58E-6,0
ONEWEB-0591,2022-166R,2026-06-15T22:43:41.050560,13.21825738,.00021099,87.9254,244.2329,98.7041,261.4332,0,U,54657,999,17139,-.10959317E-4,.8E-7,0
ONEWEB-0592,2022-166S,2026-06-15T17:21:29.408256,13.21850387,.00021699,87.9259,244.2552,102.9174,257.2203,0,U,54658,999,17124,-.93794234E-2,-.386E-4,0
ONEWEB-0593,2022-166T,2026-06-15T17:52:58.533888,13.21824635,.00019207,87.9255,244.2628,94.6563,265.4791,0,U,54659,999,17135,-.7528276E-4,-.18E-6,0
ONEWEB-0594,2022-166U,2026-06-15T22:00:04.586400,13.21827395,.00019104,87.9253,244.2451,102.5855,257.5493,0,U,54660,999,17139,-.104381E-3,-.3E-6,0
ONEWEB-0595,2022-166V,2026-06-15T23:15:08.924256,13.21826867,.00020903,87.9262,244.2152,105.4524,254.6841,0,U,54661,999,17137,-.8114483E-4,-.2E-6,0
ONEWEB-0596,2022-166W,2026-06-15T22:38:49.871328,13.21826390,.00020703,87.9258,244.2319,102.0645,258.0721,0,U,54662,999,17137,.20357886E-3,.97E-6,0
